{"type": "FeatureCollection", "features": [ {"type": "Feature", "properties": {"norad_id": 31514, "name": "FENGYUN 1C DEB", "group": "fengyun-1c-debris", "lat": -78.49028114231646, "lon": -59.653153268060244, "alt_km": 865.1656735433107, "timestamp": "2025-12-12T11:38:31.695064+00:00", "meta": {"OBJECT_NAME": "FENGYUN 1C DEB", "OBJECT_ID": "1999-025BXD", "EPOCH": "2025-12-10T16:05:53.476512", "MEAN_MOTION": 14.20962702, "ECCENTRICITY": 0.00526068, "INCLINATION": 99.2467, "RA_OF_ASC_NODE": 245.3182, "ARG_OF_PERICENTER": 120.8812, "MEAN_ANOMALY": 239.7552, "EPHEMERIS_TYPE": 0, "CLASSIFICATION_TYPE": "U", "NORAD_CAT_ID": 31514, "ELEMENT_SET_NO": 999, "REV_AT_EPOCH": 69295, "BSTAR": 0.0022942237, "MEAN_MOTION_DOT": 4.995e-05, "MEAN_MOTION_DDOT": 0}, "tle": {"line1": "1 31514U 99025BXD 25344.67075783  .00004995  00000+0  22942-2 0  9997", "line2": "2 31514  99.2467 245.3182 0052606 120.8812 239.7552 14.20962702692956"}}, "geometry": {"type": "Point", "coordinates": [-59.653153268060244, -78.49028114231646]}}, {"type": "Feature", "properties": {"norad_id": 31516, "name": "FENGYUN 1C DEB", "group": "fengyun-1c-debris", "lat": -60.781556407434685, "lon": -93.75838290738517, "alt_km": 707.7625116979125, "timestamp": "2025-12-12T11:38:31.695075+00:00", "meta": {"OBJECT_NAME": "FENGYUN 1C DEB", "OBJECT_ID": "1999-025BXF", "EPOCH": "2025-12-10T13:18:16.054272", "MEAN_MOTION": 14.25402083, "ECCENTRICITY": 0.0148319, "INCLINATION": 98.8323, "RA_OF_ASC_NODE": 100.4379, "ARG_OF_PERICENTER": 244.9092, "MEAN_ANOMALY": 175.0824, "EPHEMERIS_TYPE": 0, "CLASSIFICATION_TYPE": "U", "NORAD_CAT_ID": 31516, "ELEMENT_SET_NO": 999, "REV_AT_EPOCH": 96461, "BSTAR": 0.00074351, "MEAN_MOTION_DOT": 1.92e-05, "MEAN_MOTION_DDOT": 0}, "tle": {"line1": "1 31516U 99025BXF 25344.55435248  .00001920  00000+0  74351-3 0  9999", "line2": "2 31516  98.8323 100.4379 0148319 244.9092 175.0824 14.25402083964613"}}, "geometry": {"type": "Point", "coordinates": [-93.75838290738517, -60.781556407434685]}}, {"type": "Feature", "properties": {"norad_id": 31519, "name": "FENGYUN 1C DEB", "group": "fengyun-1c-debris", "lat": 3.5397774105785573, "lon": -17.493685676990122, "alt_km": 834.8178631220671, "timestamp": "2025-12-12T11:38:31.695084+00:00", "meta": {"OBJECT_NAME": "FENGYUN 1C DEB", "OBJECT_ID": "1999-025BXJ", "EPOCH": "2025-12-11T05:15:28.850688", "MEAN_MOTION": 14.23393679, "ECCENTRICITY": 0.00516578, "INCLINATION": 98.5728, "RA_OF_ASC_NODE": 341.8077, "ARG_OF_PERICENTER": 247.2921, "MEAN_ANOMALY": 112.2792, "EPHEMERIS_TYPE": 0, "CLASSIFICATION_TYPE": "U", "NORAD_CAT_ID": 31519, "ELEMENT_SET_NO": 999, "REV_AT_EPOCH": 64743, "BSTAR": 0.00064828681, "MEAN_MOTION_DOT": 1.448e-05, "MEAN_MOTION_DDOT": 0}, "tle": {"line1": "1 31519U 99025BXJ 25345.21908392  .00001448  00000+0  64829-3 0  9995", "line2": "2 31519  98.5728 341.8077 0051657 247.2921 112.2792 14.23393679647436"}}, "geometry": {"type": "Point", "coordinates": [-17.493685676990122, 3.5397774105785573]}}, {"type": "Feature", "properties": {"norad_id": 31522, "name": "FENGYUN 1C DEB", "group": "fengyun-1c-debris", "lat": 79.50546799150283, "lon": -119.4621856113045, "alt_km": 880.7471840207354, "timestamp": "2025-12-12T11:38:31.695094+00:00", "meta": {"OBJECT_NAME": "FENGYUN 1C DEB", "OBJECT_ID": "1999-025BXM", "EPOCH": "2025-12-11T07:49:06.115872", "MEAN_MOTION": 14.03996513, "ECCENTRICITY": 0.00431441, "INCLINATION": 98.7084, "RA_OF_ASC_NODE": 3.5944, "ARG_OF_PERICENTER": 204.4531, "MEAN_ANOMALY": 155.459, "EPHEMERIS_TYPE": 0, "CLASSIFICATION_TYPE": "U", "NORAD_CAT_ID": 31522, "ELEMENT_SET_NO": 999, "REV_AT_EPOCH": 94976, "BSTAR": 0.00080193623, "MEAN_MOTION_DOT": 1.236e-05, "MEAN_MOTION_DDOT": 0}, "tle": {"line1": "1 31522U 99025BXM 25345.32576523  .00001236  00000+0  80194-3 0  9996", "line2": "2 31522  98.7084   3.5944 0043144 204.4531 155.4590 14.03996513949766"}}, "geometry": {"type": "Point", "coordinates": [-119.4621856113045, 79.50546799150283]}}, {"type": "Feature", "properties": {"norad_id": 31523, "name": "FENGYUN 1C DEB", "group": "fengyun-1c-debris", "lat": -66.3571944200552, "lon": 54.651927751956556, "alt_km": 881.8636440980581, "timestamp": "2025-12-12T11:38:31.695104+00:00", "meta": {"OBJECT_NAME": "FENGYUN 1C DEB", "OBJECT_ID": "1999-025BXN", "EPOCH": "2025-12-11T22:57:32.077728", "MEAN_MOTION": 14.13859989, "ECCENTRICITY": 0.0039404, "INCLINATION": 98.7575, "RA_OF_ASC_NODE": 33.5179, "ARG_OF_PERICENTER": 112.2005, "MEAN_ANOMALY": 11.5633, "EPHEMERIS_TYPE": 0, "CLASSIFICATION_TYPE": "U", "NORAD_CAT_ID": 31523, "ELEMENT_SET_NO": 999, "REV_AT_EPOCH": 95996, "BSTAR": 3.2795e-05, "MEAN_MOTION_DOT": 2e-07, "MEAN_MOTION_DDOT": 0}, "tle": {"line1": "1 31523U 99025BXN 25345.95662127  .00000020  00000+0  32795-4 0  9997", "line2": "2 31523  98.7575  33.5179 0039404 112.2005  11.5633 14.13859989959960"}}, "geometry": {"type": "Point", "coordinates": [54.651927751956556, -66.3571944200552]}}, {"type": "Feature", "properties": {"norad_id": 31527, "name": "FENGYUN 1C DEB", "group": "fengyun-1c-debris", "lat": 81.0948341790995, "lon": 59.78825834126344, "alt_km": 1452.4748789173736, "timestamp": "2025-12-12T11:38:31.695115+00:00", "meta": {"OBJECT_NAME": "FENGYUN 1C DEB", "OBJECT_ID": "1999-025BXS", "EPOCH": "2025-12-07T16:52:20.794080", "MEAN_MOTION": 13.23396066, "ECCENTRICITY": 0.04500434, "INCLINATION": 98.893, "RA_OF_ASC_NODE": 147.9974, "ARG_OF_PERICENTER": 312.678, "MEAN_ANOMALY": 43.7239, "EPHEMERIS_TYPE": 0, "CLASSIFICATION_TYPE": "U", "NORAD_CAT_ID": 31527, "ELEMENT_SET_NO": 999, "REV_AT_EPOCH": 90123, "BSTAR": 0.00087176212, "MEAN_MOTION_DOT": 5.94e-06, "MEAN_MOTION_DDOT": 0}, "tle": {"line1": "1 31527U 99025BXS 25341.70301845  .00000594  00000+0  87176-3 0  9995", "line2": "2 31527  98.8930 147.9974 0450043 312.6780  43.7239 13.23396066901233"}}, "geometry": {"type": "Point", "coordinates": [59.78825834126344, 81.0948341790995]}}, {"type": "Feature", "properties": {"norad_id": 31531, "name": "FENGYUN 1C DEB", "group": "fengyun-1c-debris", "lat": -69.5645273552883, "lon": -172.04728603690734, "alt_km": 613.9056405049196, "timestamp": "2025-12-12T11:38:31.695125+00:00", "meta": {"OBJECT_NAME": "FENGYUN 1C DEB", "OBJECT_ID": "1999-025BXW", "EPOCH": "2025-12-11T09:22:04.454976", "MEAN_MOTION": 14.35633544, "ECCENTRICITY": 0.02440694, "INCLINATION": 98.3823, "RA_OF_ASC_NODE": 30.1986, "ARG_OF_PERICENTER": 272.6672, "MEAN_ANOMALY": 84.6601, "EPHEMERIS_TYPE": 0, "CLASSIFICATION_TYPE": "U", "NORAD_CAT_ID": 31531, "ELEMENT_SET_NO": 999, "REV_AT_EPOCH": 63915, "BSTAR": 0.0015995556, "MEAN_MOTION_DOT": 6.429e-05, "MEAN_MOTION_DDOT": 0}, "tle": {"line1": "1 31531U 99025BXW 25345.39032934  .00006429  00000+0  15996-2 0  9992", "line2": "2 31531  98.3823  30.1986 0244069 272.6672  84.6601 14.35633544639159"}}, "geometry": {"type": "Point", "coordinates": [-172.04728603690734, -69.5645273552883]}}, {"type": "Feature", "properties": {"norad_id": 31533, "name": "FENGYUN 1C DEB", "group": "fengyun-1c-debris", "lat": 64.2500403535298, "lon": -140.46590523284792, "alt_km": 781.2877431384841, "timestamp": "2025-12-12T11:38:31.695135+00:00", "meta": {"OBJECT_NAME": "FENGYUN 1C DEB", "OBJECT_ID": "1999-025BXY", "EPOCH": "2025-12-10T10:33:30.867840", "MEAN_MOTION": 14.27620619, "ECCENTRICITY": 0.00657635, "INCLINATION": 98.9607, "RA_OF_ASC_NODE": 236.5318, "ARG_OF_PERICENTER": 356.1828, "MEAN_ANOMALY": 3.8842, "EPHEMERIS_TYPE": 0, "CLASSIFICATION_TYPE": "U", "NORAD_CAT_ID": 31533, "ELEMENT_SET_NO": 999, "REV_AT_EPOCH": 66090, "BSTAR": 0.00063589019, "MEAN_MOTION_DOT": 1.556e-05, "MEAN_MOTION_DDOT": 0}, "tle": {"line1": "1 31533U 99025BXY 25344.43994060  .00001556  00000+0  63589-3 0  9993", "line2": "2 31533  98.9607 236.5318 0065763 356.1828   3.8842 14.27620619660908"}}, "geometry": {"type": "Point", "coordinates": [-140.46590523284792, 64.2500403535298]}}, {"type": "Feature", "properties": {"norad_id": 31535, "name": "FENGYUN 1C DEB", "group": "fengyun-1c-debris", "lat": 39.69696724272176, "lon": -170.30258746962465, "alt_km": 828.5195811442427, "timestamp": "2025-12-12T11:38:31.695145+00:00", "meta": {"OBJECT_NAME": "FENGYUN 1C DEB", "OBJECT_ID": "1999-025BYA", "EPOCH": "2025-12-08T20:01:31.264032", "MEAN_MOTION": 14.28309987, "ECCENTRICITY": 0.00876599, "INCLINATION": 98.0348, "RA_OF_ASC_NODE": 193.0693, "ARG_OF_PERICENTER": 174.5726, "MEAN_ANOMALY": 185.6428, "EPHEMERIS_TYPE": 0, "CLASSIFICATION_TYPE": "U", "NORAD_CAT_ID": 31535, "ELEMENT_SET_NO": 999, "REV_AT_EPOCH": 71875, "BSTAR": 0.0012494375, "MEAN_MOTION_DOT": 3.212e-05, "MEAN_MOTION_DDOT": 0}, "tle": {"line1": "1 31535U 99025BYA 25342.83438963  .00003212  00000+0  12494-2 0  9991", "line2": "2 31535  98.0348 193.0693 0087659 174.5726 185.6428 14.28309987718752"}}, "geometry": {"type": "Point", "coordinates": [-170.30258746962465, 39.69696724272176]}}, {"type": "Feature", "properties": {"norad_id": 31536, "name": "FENGYUN 1C DEB", "group": "fengyun-1c-debris", "lat": -47.34380447387267, "lon": 64.81943909700998, "alt_km": 684.7677674095294, "timestamp": "2025-12-12T11:38:31.695160+00:00", "meta": {"OBJECT_NAME": "FENGYUN 1C DEB", "OBJECT_ID": "1999-025BYB", "EPOCH": "2025-12-09T11:36:52.353792", "MEAN_MOTION": 14.54254862, "ECCENTRICITY": 0.02944487, "INCLINATION": 98.2357, "RA_OF_ASC_NODE": 250.9051, "ARG_OF_PERICENTER": 154.7924, "MEAN_ANOMALY": 206.7981, "EPHEMERIS_TYPE": 0, "CLASSIFICATION_TYPE": "U", "NORAD_CAT_ID": 31536, "ELEMENT_SET_NO": 999, "REV_AT_EPOCH": 96210, "BSTAR": 0.0011928693, "MEAN_MOTION_DOT": 9.011e-05, "MEAN_MOTION_DDOT": 0}, "tle": {"line1": "1 31536U 99025BYB 25343.48393928  .00009011  00000+0  11929-2 0  9990", "line2": "2 31536  98.2357 250.9051 0294448 154.7924 206.7981 14.54254862962101"}}, "geometry": {"type": "Point", "coordinates": [64.81943909700998, -47.34380447387267]}}]}